{
  "type": "FeatureCollection",
  "features": [
    {
      "type": "Feature",
      "properties": {
        "norad_id": 26766,
        "name": "INTELSAT 10 (IS-10)",
        "group": "intelsat",
        "lat": -8.653222823942125,
        "lon": -26.752599653974496,
        "alt_km": 36102.36879472731,
        "timestamp": "2025-12-19T08:58:49.004616+00:00",
        "meta_object_name": "INTELSAT 10 (IS-10)",
        "meta_object_id": "2001-019A",
        "meta_epoch": "2025-12-18T15:52:21.542016",
        "meta_mean_motion": 0.99076062,
        "meta_eccentricity": 0.00076782,
        "meta_inclination": 8.6429,
        "meta_ra_of_asc_node": 61.0978,
        "meta_arg_of_pericenter": 228.2333,
        "meta_mean_anomaly": 149.5829,
        "meta_ephemeris_type": 0,
        "meta_classification_type": "U",
        "meta_norad_cat_id": 26766,
        "meta_element_set_no": 999,
        "meta_rev_at_epoch": 4379,
        "meta_bstar": 0,
        "meta_mean_motion_dot": -1.61e-06,
        "meta_mean_motion_ddot": 0,
        "tle_line1": "1 26766U 01019A   25352.66136044 -.00000161  00000+0  00000+0 0  9992",
        "tle_line2": "2 26766   8.6429  61.0978 0007678 228.2333 149.5829  0.99076062 43790"
      },
      "geometry": {
        "type": "Point",
        "coordinates": [
          -26.752599653974496,
          -8.653222823942125
        ]
      }
    },
    {
      "type": "Feature",
      "properties": {
        "norad_id": 26900,
        "name": "INTELSAT 902 (IS-902)",
        "group": "intelsat",
        "lat": 5.601488311220283,
        "lon": 172.7890302186352,
        "alt_km": 35786.354491594124,
        "timestamp": "2025-12-19T08:58:49.004639+00:00",
        "meta_object_name": "INTELSAT 902 (IS-902)",
        "meta_object_id": "2001-039A",
        "meta_epoch": "2025-12-15T13:09:02.081664",
        "meta_mean_motion": 1.0027087,
        "meta_eccentricity": 0.00045028,
        "meta_inclination": 5.6536,
        "meta_ra_of_asc_node": 74.0372,
        "meta_arg_of_pericenter": 189.6359,
        "meta_mean_anomaly": 327.9329,
        "meta_ephemeris_type": 0,
        "meta_classification_type": "U",
        "meta_norad_cat_id": 26900,
        "meta_element_set_no": 999,
        "meta_rev_at_epoch": 8885,
        "meta_bstar": 0,
        "meta_mean_motion_dot": -2.65e-06,
        "meta_mean_motion_ddot": 0,
        "tle_line1": "1 26900U 01039A   25349.54794076 -.00000265  00000+0  00000+0 0  9997",
        "tle_line2": "2 26900   5.6536  74.0372 0004502 189.6359 327.9329  1.00270870 88858"
      },
      "geometry": {
        "type": "Point",
        "coordinates": [
          172.7890302186352,
          5.601488311220283
        ]
      }
    },
    {
      "type": "Feature",
      "properties": {
        "norad_id": 27380,
        "name": "INTELSAT 904 (IS-904)",
        "group": "intelsat",
        "lat": 5.594426404763525,
        "lon": -168.42981662422983,
        "alt_km": 35789.68171063316,
        "timestamp": "2025-12-19T08:58:49.004654+00:00",
        "meta_object_name": "INTELSAT 904 (IS-904)",
        "meta_object_id": "2002-007A",
        "meta_epoch": "2025-12-18T14:51:25.201152",
        "meta_mean_motion": 1.00271527,
        "meta_eccentricity": 0.00017067,
        "meta_inclination": 6.4685,
        "meta_ra_of_asc_node": 71.3651,
        "meta_arg_of_pericenter": 246.0058,
        "meta_mean_anomaly": 321.4637,
        "meta_ephemeris_type": 0,
        "meta_classification_type": "U",
        "meta_norad_cat_id": 27380,
        "meta_element_set_no": 999,
        "meta_rev_at_epoch": 4995,
        "meta_bstar": 0,
        "meta_mean_motion_dot": -2.06e-06,
        "meta_mean_motion_ddot": 0,
        "tle_line1": "1 27380U 02007A   25352.61904168 -.00000206  00000+0  00000+0 0  9998",
        "tle_line2": "2 27380   6.4685  71.3651 0001706 246.0058 321.4637  1.00271527 49951"
      },
      "geometry": {
        "type": "Point",
        "coordinates": [
          -168.42981662422983,
          5.594426404763525
        ]
      }
    },
    {
      "type": "Feature",
      "properties": {
        "norad_id": 27426,
        "name": "DIRECTV 5 (TEMPO 1)",
        "group": "intelsat",
        "lat": 2.5720162277014462,
        "lon": 112.72558179076628,
        "alt_km": 35799.760333424296,
        "timestamp": "2025-12-19T08:58:49.004667+00:00",
        "meta_object_name": "DIRECTV 5 (TEMPO 1)",
        "meta_object_id": "2002-023A",
        "meta_epoch": "2025-12-18T16:11:47.503968",
        "meta_mean_motion": 1.00272743,
        "meta_eccentricity": 0.00034103,
        "meta_inclination": 4.4165,
        "meta_ra_of_asc_node": 77.584,
        "meta_arg_of_pericenter": 207.0949,
        "meta_mean_anomaly": 295.6907,
        "meta_ephemeris_type": 0,
        "meta_classification_type": "U",
        "meta_norad_cat_id": 27426,
        "meta_element_set_no": 999,
        "meta_rev_at_epoch": 8631,
        "meta_bstar": 0,
        "meta_mean_motion_dot": -3.6e-07,
        "meta_mean_motion_ddot": 0,
        "tle_line1": "1 27426U 02023A   25352.67485537 -.00000036  00000+0  00000+0 0  9998",
        "tle_line2": "2 27426   4.4165  77.5840 0003410 207.0949 295.6907  1.00272743 86315"
      },
      "geometry": {
        "type": "Point",
        "coordinates": [
          112.72558179076628,
          2.5720162277014462
        ]
      }
    },
    {
      "type": "Feature",
      "properties": {
        "norad_id": 27438,
        "name": "INTELSAT 905 (IS-905)",
        "group": "intelsat",
        "lat": 1.5192618459405083,
        "lon": 85.6344685358549,
        "alt_km": 35796.88130085108,
        "timestamp": "2025-12-19T08:58:49.004680+00:00",
        "meta_object_name": "INTELSAT 905 (IS-905)",
        "meta_object_id": "2002-027A",
        "meta_epoch": "2025-12-18T20:04:07.110624",
        "meta_mean_motion": 1.00272079,
        "meta_eccentricity": 0.00026396,
        "meta_inclination": 6.3,
        "meta_ra_of_asc_node": 71.9858,
        "meta_arg_of_pericenter": 200.0074,
        "meta_mean_anomaly": 339.5183,
        "meta_ephemeris_type": 0,
        "meta_classification_type": "U",
        "meta_norad_cat_id": 27438,
        "meta_element_set_no": 999,
        "meta_rev_at_epoch": 4955,
        "meta_bstar": 0,
        "meta_mean_motion_dot": 1.13e-06,
        "meta_mean_motion_ddot": 0,
        "tle_line1": "1 27438U 02027A   25352.83619341  .00000113  00000+0  00000+0 0  9990",
        "tle_line2": "2 27438   6.3000  71.9858 0002639 200.0074 339.5183  1.00272079 49559"
      },
      "geometry": {
        "type": "Point",
        "coordinates": [
          85.6344685358549,
          1.5192618459405083
        ]
      }
    },
    {
      "type": "Feature",
      "properties": {
        "norad_id": 27445,
        "name": "GALAXY 3C (G-3C)",
        "group": "intelsat",
        "lat": 2.442652610358747,
        "lon": 128.00721028394514,
        "alt_km": 35781.573884735124,
        "timestamp": "2025-12-19T08:58:49.004692+00:00",
        "meta_object_name": "GALAXY 3C (G-3C)",
        "meta_object_id": "2002-030A",
        "meta_epoch": "2025-12-18T19:41:32.858016",
        "meta_mean_motion": 1.00271925,
        "meta_eccentricity": 0.00011454,
        "meta_inclination": 3.2783,
        "meta_ra_of_asc_node": 80.4458,
        "meta_arg_of_pericenter": 77.4662,
        "meta_mean_anomaly": 130.2917,
        "meta_ephemeris_type": 0,
        "meta_classification_type": "U",
        "meta_norad_cat_id": 27445,
        "meta_element_set_no": 999,
        "meta_rev_at_epoch": 4468,
        "meta_bstar": 0,
        "meta_mean_motion_dot": -1.3e-06,
        "meta_mean_motion_ddot": 0,
        "tle_line1": "1 27445U 02030A   25352.82051919 -.00000130  00000+0  00000+0 0  9992",
        "tle_line2": "2 27445   3.2783  80.4458 0001145  77.4662 130.2917  1.00271925 44681"
      },
      "geometry": {
        "type": "Point",
        "coordinates": [
          128.00721028394514,
          2.442652610358747
        ]
      }
    },
    {
      "type": "Feature",
      "properties": {
        "norad_id": 27513,
        "name": "INTELSAT 906 (IS-906)",
        "group": "intelsat",
        "lat": -2.8494760584766268,
        "lon": -73.04061233181133,
        "alt_km": 35760.36236638783,
        "timestamp": "2025-12-19T08:58:49.004704+00:00",
        "meta_object_name": "INTELSAT 906 (IS-906)",
        "meta_object_id": "2002-041A",
        "meta_epoch": "2025-12-18T20:13:38.922240",
        "meta_mean_motion": 1.00272534,
        "meta_eccentricity": 0.0006302,
        "meta_inclination": 5.3449,
        "meta_ra_of_asc_node": 75.1597,
        "meta_arg_of_pericenter": 197.4731,
        "meta_mean_anomaly": 182.6056,
        "meta_ephemeris_type": 0,
        "meta_classification_type": "U",
        "meta_norad_cat_id": 27513,
        "meta_element_set_no": 999,
        "meta_rev_at_epoch": 8522,
        "meta_bstar": 0,
        "meta_mean_motion_dot": 3.3e-07,
        "meta_mean_motion_ddot": 0,
        "tle_line1": "1 27513U 02041A   25352.84281160  .00000033  00000+0  00000+0 0  9996",
        "tle_line2": "2 27513   5.3449  75.1597 0006302 197.4731 182.6056  1.00272534 85221"
      },
      "geometry": {
        "type": "Point",
        "coordinates": [
          -73.04061233181133,
          -2.8494760584766268
        ]
      }
    }
  ]
}